{"type":"FeatureCollection","features":[{"type":"Feature","id":"disputed:abkhazia-B35","properties":{"name":"Abkhazia","administeredBy":"Georgia","note":"Self admin.; Claimed by Georgia"},"geometry":{"type":"Polygon","coordinates":[[[41.86,42.59],[41.717,42.503],[41.578,42.398],[41.489,42.659],[41.419,42.738],[41.129,42.828],[41.062,42.931],[40.837,43.063],[40.524,43.121],[40.462,43.146],[40.191,43.312],[39.978,43.42],[40.024,43.485],[40.085,43.553],[40.15,43.57],[40.342,43.543],[40.519,43.512],[40.648,43.534],[40.802,43.48],[40.942,43.418],[41.083,43.374],[41.358,43.333],[41.461,43.276],[41.581,43.219],[42.05,43.19],[42.088,43.199],[42.099,43.143],[42.024,43.048],[41.94,42.991],[41.907,42.922],[41.932,42.862],[41.895,42.808],[41.928,42.655],[41.86,42.59]]]}},{"type":"Feature","id":"disputed:abyei-B13","properties":{"name":"Abyei","administeredBy":"Sudan","note":"Admin. by Sudan; Claimed by South Sudan"},"geometry":{"type":"Polygon","coordinates":[[[27.886,9.6],[27.823,9.746],[27.823,10.159],[28.979,10.159],[28.98,9.594],[28.839,9.459],[28.829,9.389],[28.844,9.326],[28.049,9.329],[27.996,9.379],[27.886,9.6]]]}},{"type":"Feature","id":"disputed:aksai-chin-B07","properties":{"name":"Aksai Chin","administeredBy":"China","note":"Admin. by China; Claimed by India"},"geometry":{"type":"Polygon","coordinates":[[[77.803,35.493],[77.799,35.496],[77.942,35.535],[78.045,35.547],[78.133,35.581],[78.194,35.635],[78.346,35.722],[78.555,35.788],[78.606,35.818],[78.673,35.869],[78.746,35.876],[78.832,35.866],[78.97,35.891],[79.098,35.887],[79.166,35.942],[79.352,35.974],[79.389,35.963],[79.454,35.891],[79.518,35.864],[79.644,35.839],[79.735,35.81],[79.861,35.787],[79.929,35.827],[80.003,35.819],[80.072,35.738],[80.15,35.685],[80.263,35.626],[80.313,35.579],[80.311,35.54],[80.271,35.33],[80.264,35.271],[80.205,35.177],[80.175,34.987],[80.091,34.839],[80.028,34.659],[79.876,34.656],[79.841,34.616],[79.784,34.564],[79.745,34.537],[79.731,34.515],[79.727,34.44],[79.717,34.425],[79.677,34.415],[79.536,34.42],[79.517,34.402],[79.544,34.236],[79.495,34.147],[79.484,34.107],[79.433,34.055],[79.275,34.02],[79.102,34.012],[78.931,34],[78.911,33.989],[78.897,33.964],[78.894,33.927],[78.917,33.863],[78.991,33.722],[79.002,33.671],[78.993,33.651],[78.942,33.605],[78.897,33.557],[78.91,33.45],[78.917,33.387],[78.865,33.431],[78.802,33.5],[78.79,33.65],[78.784,33.809],[78.762,33.888],[78.727,34.013],[78.732,34.056],[78.753,34.088],[78.932,34.189],[78.971,34.228],[78.977,34.258],[78.97,34.303],[78.936,34.352],[78.865,34.39],[78.763,34.453],[78.671,34.518],[78.516,34.558],[78.327,34.606],[78.282,34.654],[78.236,34.77],[78.158,34.946],[78.076,35.135],[78.012,35.251],[78.009,35.307],[78.047,35.449],[78.043,35.48],[78.009,35.49],[77.946,35.472],[77.895,35.449],[77.852,35.461],[77.811,35.485],[77.803,35.493]]]}},{"type":"Feature","id":"disputed:artsakh-B38","properties":{"name":"Artsakh","administeredBy":"Azerbaijan","note":"Self admin.; Claimed by Azer."},"geometry":{"type":"Polygon","coordinates":[[[46.473,40.289],[46.653,40.386],[46.746,40.413],[46.803,40.384],[46.837,40.347],[46.872,40.318],[46.926,40.298],[46.993,40.256],[47.069,40.207],[47.071,40.15],[47.082,40.121],[47.125,40.057],[47.154,40.024],[47.166,39.976],[47.173,39.938],[47.179,39.885],[47.193,39.834],[47.213,39.795],[47.233,39.754],[47.266,39.667],[47.293,39.532],[47.322,39.414],[47.188,39.341],[47.065,39.253],[46.989,39.18],[46.853,39.148],[46.762,39.071],[46.555,38.904],[46.491,38.907],[46.487,38.997],[46.49,39.069],[46.475,39.111],[46.401,39.168],[46.4,39.192],[46.42,39.207],[46.477,39.198],[46.55,39.201],[46.585,39.224],[46.507,39.299],[46.437,39.349],[46.378,39.382],[46.365,39.403],[46.365,39.417],[46.378,39.434],[46.478,39.475],[46.488,39.513],[46.481,39.555],[46.322,39.617],[46.202,39.594],[46.095,39.664],[46.026,39.719],[45.94,39.777],[45.863,39.808],[45.79,39.881],[45.662,39.956],[45.58,39.978],[45.578,39.984],[45.596,40.003],[45.63,40.014],[45.858,40.011],[45.886,40.025],[45.9,40.057],[45.931,40.105],[45.968,40.175],[45.965,40.234],[46.027,40.233],[46.111,40.256],[46.174,40.261],[46.246,40.246],[46.312,40.244],[46.346,40.266],[46.414,40.283],[46.473,40.289]]]}},{"type":"Feature","id":"disputed:arunachal-pradesh-B00","properties":{"name":"Arunachal Pradesh","administeredBy":"India","note":"Admin. by India; Claimed by China"},"geometry":{"type":"Polygon","coordinates":[[[92.05,26.875],[92.073,26.915],[92.068,26.975],[92.031,27.041],[91.999,27.079],[91.992,27.1],[92.003,27.147],[92.031,27.214],[92.083,27.291],[92.045,27.365],[91.991,27.45],[91.951,27.458],[91.851,27.439],[91.743,27.443],[91.658,27.494],[91.595,27.558],[91.579,27.611],[91.598,27.677],[91.626,27.737],[91.632,27.76],[91.713,27.76],[91.825,27.746],[91.909,27.73],[91.978,27.73],[92.101,27.808],[92.158,27.812],[92.222,27.827],[92.251,27.841],[92.27,27.83],[92.341,27.821],[92.415,27.825],[92.481,27.846],[92.547,27.879],[92.664,27.949],[92.688,27.989],[92.687,28.026],[92.666,28.05],[92.643,28.062],[92.653,28.093],[92.702,28.147],[92.882,28.228],[93.035,28.328],[93.119,28.402],[93.158,28.493],[93.207,28.591],[93.252,28.629],[93.361,28.654],[93.665,28.69],[93.761,28.73],[93.902,28.803],[93.974,28.861],[94.013,28.908],[94.018,28.96],[94.112,28.976],[94.193,29.06],[94.293,29.145],[94.468,29.216],[94.623,29.312],[94.677,29.297],[94.733,29.252],[94.763,29.201],[94.769,29.176],[94.968,29.144],[94.999,29.149],[95.145,29.104],[95.279,29.05],[95.353,29.036],[95.389,29.037],[95.42,29.054],[95.457,29.102],[95.494,29.137],[95.517,29.151],[95.516,29.206],[95.71,29.314],[95.885,29.391],[96.035,29.447],[96.08,29.424],[96.128,29.381],[96.195,29.272],[96.235,29.246],[96.337,29.261],[96.356,29.249],[96.34,29.21],[96.271,29.161],[96.181,29.118],[96.122,29.082],[96.141,28.963],[96.137,28.923],[96.162,28.91],[96.347,29.027],[96.436,29.051],[96.467,29.022],[96.477,28.959],[96.55,28.83],[96.581,28.764],[96.396,28.607],[96.327,28.525],[96.33,28.497],[96.326,28.469],[96.279,28.428],[96.281,28.412],[96.32,28.387],[96.366,28.367],[96.389,28.368],[96.428,28.406],[96.603,28.46],[96.653,28.45],[96.776,28.367],[96.833,28.362],[96.981,28.338],[97.075,28.369],[97.145,28.34],[97.289,28.237],[97.323,28.218],[97.31,28.155],[97.303,28.086],[97.339,28.031],[97.344,27.982],[97.335,27.938],[97.306,27.907],[97.226,27.89],[97.158,27.837],[97.05,27.76],[97.029,27.78],[96.925,27.859],[96.827,27.897],[96.684,27.961],[96.497,28.089],[96.38,28.144],[96.335,28.157],[96.152,28.189],[96.127,28.191],[96.043,28.185],[95.91,28.209],[95.809,28.243],[95.75,28.238],[95.524,28.162],[95.312,28.081],[95.272,28.008],[95.237,27.93],[95.208,27.901],[94.999,27.802],[94.748,27.684],[94.667,27.652],[94.503,27.603],[94.208,27.538],[94.154,27.479],[94.014,27.351],[93.897,27.243],[93.807,27.144],[93.753,27.023],[93.666,26.971],[93.51,26.923],[93.399,26.903],[93.231,26.88],[92.933,26.878],[92.707,26.925],[92.625,26.963],[92.42,26.897],[92.186,26.867],[92.05,26.875]]]}},{"type":"Feature","id":"disputed:bara-hotii-valleys-B02","properties":{"name":"Bara Hotii Valleys","administeredBy":"India","note":"Admin. by India; Claimed by China"},"geometry":{"type":"Polygon","coordinates":[[[80.179,30.579],[80.132,30.617],[80.059,30.678],[80.011,30.739],[79.999,30.789],[79.931,30.861],[79.919,30.89],[79.925,30.889],[80.003,30.835],[80.082,30.782],[80.149,30.79],[80.194,30.759],[80.207,30.684],[80.186,30.605],[80.191,30.568],[80.179,30.579]]]}},{"type":"Feature","id":"disputed:courantyne-headwaters-B15","properties":{"name":"Courantyne Headwaters","administeredBy":"Guyana","note":"Admin. by Guyana; Claimed by Suriname"},"geometry":{"type":"Polygon","coordinates":[[[-56.483,1.942],[-56.526,1.927],[-56.564,1.907],[-56.616,1.923],[-56.69,1.914],[-56.766,1.892],[-56.837,1.881],[-56.97,1.916],[-57.01,1.921],[-57.038,1.936],[-57.093,2.006],[-57.119,2.014],[-57.19,1.982],[-57.276,1.959],[-57.318,1.963],[-57.367,1.94],[-57.413,1.909],[-57.5,1.774],[-57.546,1.726],[-57.594,1.704],[-57.692,1.705],[-57.796,1.7],[-57.873,1.667],[-57.946,1.651],[-57.983,1.648],[-57.995,1.574],[-58.012,1.54],[-58.035,1.52],[-58.091,1.514],[-58.142,1.517],[-58.173,1.548],[-58.23,1.563],[-58.281,1.574],[-58.314,1.592],[-58.341,1.588],[-58.363,1.557],[-58.38,1.53],[-58.396,1.482],[-58.427,1.475],[-58.427,1.476],[-58.423,1.531],[-58.401,1.58],[-58.31,1.658],[-58.224,1.756],[-58.169,1.783],[-58.108,1.796],[-57.977,1.768],[-57.917,1.792],[-57.892,1.846],[-57.896,1.916],[-57.917,1.981],[-57.944,2.021],[-57.91,2.063],[-57.931,2.225],[-57.902,2.3],[-57.92,2.385],[-57.823,2.448],[-57.784,2.557],[-57.771,2.59],[-57.671,2.618],[-57.592,2.665],[-57.454,2.739],[-57.428,2.799],[-57.458,2.885],[-57.475,2.925],[-57.486,2.974],[-57.58,3.067],[-57.616,3.13],[-57.597,3.364],[-57.597,3.369],[-57.55,3.353],[-57.491,3.354],[-57.438,3.362],[-57.426,3.375],[-57.304,3.377],[-57.29,3.354],[-57.283,3.219],[-57.278,3.164],[-57.249,3.142],[-57.232,3.109],[-57.231,3.079],[-57.225,3.003],[-57.207,2.963],[-57.21,2.883],[-57.197,2.853],[-57.164,2.833],[-57.121,2.776],[-57.105,2.768],[-57.097,2.748],[-57.06,2.666],[-57.042,2.641],[-57.029,2.637],[-57.023,2.609],[-56.997,2.532],[-56.979,2.513],[-56.945,2.457],[-56.931,2.395],[-56.886,2.326],[-56.841,2.277],[-56.82,2.227],[-56.761,2.115],[-56.704,2.036],[-56.627,2.016],[-56.563,2.005],[-56.522,1.975],[-56.483,1.942]]]}},{"type":"Feature","id":"disputed:crimea-B89","properties":{"name":"Crimea","administeredBy":"Russia","note":"Admin. by Russia; Claimed by Ukraine"},"geometry":{"type":"Polygon","coordinates":[[[35.002,45.733],[35.023,45.701],[35.26,45.447],[35.374,45.354],[35.458,45.316],[35.558,45.311],[35.751,45.389],[35.833,45.402],[36.013,45.372],[36.077,45.424],[36.171,45.453],[36.29,45.457],[36.427,45.433],[36.575,45.394],[36.514,45.304],[36.451,45.232],[36.428,45.153],[36.393,45.065],[36.23,45.026],[36.055,45.031],[35.87,45.005],[35.804,45.04],[35.759,45.071],[35.678,45.102],[35.57,45.119],[35.473,45.098],[35.358,44.978],[35.155,44.896],[35.088,44.803],[34.888,44.824],[34.717,44.807],[34.47,44.722],[34.282,44.538],[34.074,44.424],[33.91,44.388],[33.756,44.399],[33.656,44.433],[33.451,44.554],[33.463,44.597],[33.491,44.619],[33.53,44.681],[33.612,44.908],[33.601,44.981],[33.555,45.098],[33.392,45.188],[33.262,45.171],[33.187,45.195],[32.919,45.348],[32.773,45.359],[32.611,45.328],[32.552,45.35],[32.508,45.404],[32.828,45.593],[33.142,45.749],[33.28,45.765],[33.466,45.838],[33.665,45.947],[33.637,46.033],[33.594,46.096],[33.654,46.146],[33.66,46.22],[33.807,46.208],[34.027,46.107],[34.128,46.09],[34.224,46.101],[34.354,46.062],[34.45,45.966],[34.523,45.977],[34.687,45.977],[34.794,45.892],[34.8,45.791],[34.946,45.729],[35.002,45.733]]]}},{"type":"Feature","id":"disputed:demchok-B03","properties":{"name":"Demchok","administeredBy":"India","note":"Admin. by India; Claimed by China"},"geometry":{"type":"Polygon","coordinates":[[[79.113,33.226],[79.355,33.17],[79.376,33.146],[79.34,33.034],[79.335,32.976],[79.436,32.834],[79.499,32.73],[79.494,32.688],[79.47,32.643],[79.385,32.57],[79.292,32.507],[79.219,32.501],[79.219,32.508],[79.217,32.564],[79.234,32.703],[79.228,32.759],[79.206,32.809],[79.21,32.865],[79.202,32.946],[79.146,33.001],[79.109,33.023],[79.103,33.053],[79.122,33.108],[79.135,33.172],[79.116,33.219],[79.113,33.226]]]}},{"type":"Feature","id":"disputed:donetsk-people-s-republic-C02","properties":{"name":"Donetsk People's Republic","administeredBy":"Ukraine","note":"Self admin.; Claimed by Ukraine"},"geometry":{"type":"Polygon","coordinates":[[[38.305,48.455],[38.408,48.429],[38.483,48.351],[38.42,48.311],[38.42,48.28],[38.565,48.272],[38.614,48.173],[38.805,48.116],[38.822,48.092],[38.803,48.055],[38.829,48.026],[38.988,48.012],[39.031,47.995],[39.048,47.884],[39.036,47.857],[39.034,47.849],[38.9,47.855],[38.822,47.837],[38.719,47.714],[38.641,47.666],[38.511,47.622],[38.369,47.61],[38.287,47.559],[38.259,47.48],[38.257,47.409],[38.243,47.374],[38.212,47.343],[38.201,47.321],[38.208,47.297],[38.241,47.288],[38.281,47.277],[38.281,47.259],[38.265,47.237],[38.221,47.213],[38.201,47.175],[38.206,47.136],[38.214,47.091],[38.178,47.08],[37.829,47.096],[37.761,47.091],[37.772,47.119],[37.759,47.185],[37.754,47.256],[37.788,47.307],[37.784,47.362],[37.665,47.502],[37.548,47.671],[37.509,47.762],[37.492,47.894],[37.524,47.965],[37.578,48.009],[37.728,48.075],[37.771,48.2],[37.85,48.268],[37.96,48.383],[38.188,48.434],[38.305,48.455]]]}},{"type":"Feature","id":"disputed:gilgit-baltistan-B08","properties":{"name":"Gilgit-Baltistan","administeredBy":"Pakistan","note":"Admin. by Pakistan; Claimed by India"},"geometry":{"type":"Polygon","coordinates":[[[77.049,35.11],[77.031,35.062],[77.001,34.992],[76.892,34.939],[76.783,34.9],[76.758,34.878],[76.749,34.848],[76.696,34.787],[76.594,34.736],[76.51,34.741],[76.457,34.756],[76.172,34.668],[76.041,34.67],[75.938,34.613],[75.862,34.56],[75.709,34.503],[75.606,34.503],[75.452,34.537],[75.264,34.601],[75.188,34.639],[75.118,34.637],[74.952,34.646],[74.789,34.678],[74.594,34.716],[74.498,34.732],[74.3,34.765],[74.172,34.721],[74.056,34.681],[73.961,34.653],[73.883,34.529],[73.85,34.485],[73.812,34.422],[73.794,34.378],[73.81,34.325],[73.925,34.288],[73.972,34.237],[73.979,34.191],[73.938,34.145],[73.904,34.108],[73.904,34.076],[73.922,34.043],[73.95,34.019],[74.113,34.004],[74.209,34.003],[74.247,33.99],[74.251,33.946],[74.216,33.887],[74.078,33.839],[74.001,33.788],[73.976,33.721],[73.978,33.668],[74.004,33.632],[74.07,33.592],[74.131,33.545],[74.15,33.507],[74.143,33.455],[74.118,33.384],[74.05,33.301],[73.994,33.242],[73.99,33.221],[74.004,33.189],[74.049,33.143],[74.126,33.075],[74.222,33.02],[74.284,33.005],[74.304,32.992],[74.323,32.928],[74.33,32.861],[74.306,32.81],[74.15,32.9],[73.955,32.994],[73.852,33.029],[73.715,33.069],[73.643,33.105],[73.615,33.237],[73.609,33.432],[73.616,33.527],[73.595,33.598],[73.581,33.668],[73.587,33.712],[73.58,33.769],[73.576,33.849],[73.549,33.952],[73.503,34.074],[73.484,34.215],[73.422,34.371],[73.423,34.431],[73.435,34.489],[73.455,34.538],[73.48,34.566],[73.623,34.598],[73.652,34.646],[73.678,34.704],[73.805,34.793],[74.012,34.895],[74.074,35.014],[74.091,35.104],[74.038,35.143],[73.893,35.196],[73.762,35.247],[73.713,35.284],[73.693,35.319],[73.698,35.36],[73.775,35.468],[73.766,35.497],[73.739,35.516],[73.645,35.531],[73.472,35.536],[73.443,35.56],[73.371,35.579],[73.345,35.592],[73.263,35.641],[73.161,35.71],[73.134,35.752],[73.128,35.795],[73.117,35.833],[73.072,35.858],[72.967,35.87],[72.879,35.874],[72.82,35.857],[72.74,35.846],[72.643,35.865],[72.566,35.897],[72.557,35.967],[72.554,36.156],[72.584,36.236],[72.78,36.335],[72.888,36.42],[73.046,36.554],[73.076,36.626],[73.095,36.689],[73.135,36.713],[73.365,36.737],[73.487,36.742],[73.654,36.729],[73.802,36.738],[73.841,36.771],[73.799,36.817],[73.743,36.853],[73.732,36.888],[73.769,36.888],[73.908,36.853],[74.002,36.823],[74.039,36.826],[74.195,36.897],[74.431,36.984],[74.541,37.022],[74.601,37.037],[74.692,37.036],[74.766,37.013],[74.841,36.979],[74.889,36.952],[74.949,36.968],[75.054,36.987],[75.145,36.973],[75.347,36.913],[75.377,36.884],[75.424,36.738],[75.46,36.725],[75.574,36.759],[75.667,36.742],[75.772,36.695],[75.84,36.65],[75.885,36.601],[75.933,36.522],[75.952,36.458],[75.974,36.382],[75.969,36.169],[75.934,36.134],[75.905,36.088],[75.912,36.049],[75.945,36.018],[76.01,35.996],[76.071,35.983],[76.103,35.949],[76.148,35.829],[76.178,35.811],[76.252,35.811],[76.386,35.837],[76.502,35.878],[76.551,35.887],[76.563,35.773],[76.632,35.729],[76.728,35.679],[76.767,35.662],[76.813,35.572],[76.882,35.436],[76.928,35.347],[76.979,35.246],[77.004,35.196],[77.049,35.11]]]}},{"type":"Feature","id":"disputed:golan-heights-B16","properties":{"name":"Golan Heights","administeredBy":"Israel","note":"Admin. By Israel; Claimed by Syria"},"geometry":{"type":"Polygon","coordinates":[[[35.842,32.876],[35.833,32.82],[35.787,32.735],[35.734,32.729],[35.611,32.682],[35.592,32.723],[35.608,32.76],[35.636,32.807],[35.633,32.867],[35.614,32.891],[35.589,32.953],[35.577,33.01],[35.601,33.04],[35.635,33.118],[35.641,33.2],[35.603,33.241],[35.627,33.275],[35.734,33.333],[35.787,33.37],[35.841,33.416],[35.816,33.362],[35.793,33.334],[35.785,33.291],[35.8,33.256],[35.809,33.209],[35.827,33.195],[35.833,33.161],[35.817,33.133],[35.825,33.108],[35.845,33.085],[35.859,32.99],[35.888,32.944],[35.842,32.876]]]}},{"type":"Feature","id":"disputed:ilemi-triangle-B17","properties":{"name":"Ilemi Triangle","administeredBy":"Kenya","note":"Admin. by Kenya; Claimed by South Sudan"},"geometry":{"type":"Polygon","coordinates":[[[34.765,4.62],[34.573,4.621],[34.38,4.621],[34.64,4.875],[34.878,5.11],[35.084,5.312],[35.268,5.492],[35.264,5.458],[35.265,5.412],[35.288,5.384],[35.325,5.365],[35.378,5.385],[35.424,5.413],[35.469,5.419],[35.745,5.344],[35.791,5.279],[35.788,5.208],[35.8,5.157],[35.779,5.106],[35.756,4.95],[35.763,4.808],[35.846,4.703],[35.92,4.62],[35.728,4.62],[35.535,4.62],[35.342,4.62],[35.15,4.62],[34.958,4.62],[34.765,4.62]]]}},{"type":"Feature","id":"disputed:jammu-and-kashmir-B05","properties":{"name":"Jammu and Kashmir","administeredBy":"India","note":"Admin. by India; Claimed by Pakistan"},"geometry":{"type":"Polygon","coordinates":[[[79.113,33.226],[79.116,33.219],[79.135,33.172],[79.122,33.108],[79.103,33.053],[79.109,33.023],[79.146,33.001],[79.202,32.946],[79.21,32.865],[79.206,32.809],[79.228,32.759],[79.234,32.703],[79.217,32.564],[79.219,32.508],[79.219,32.501],[79.17,32.497],[79.127,32.476],[79.067,32.388],[78.998,32.365],[78.919,32.358],[78.838,32.412],[78.771,32.468],[78.753,32.499],[78.737,32.558],[78.701,32.597],[78.632,32.579],[78.526,32.571],[78.413,32.558],[78.392,32.545],[78.39,32.52],[78.35,32.488],[78.296,32.456],[78.273,32.463],[78.266,32.481],[78.273,32.516],[78.32,32.568],[78.364,32.606],[78.372,32.643],[78.373,32.687],[78.363,32.714],[78.343,32.731],[78.316,32.732],[78.251,32.696],[78.173,32.663],[78.048,32.627],[77.987,32.621],[77.951,32.639],[77.916,32.669],[77.875,32.753],[77.824,32.818],[77.777,32.892],[77.761,32.933],[77.739,32.952],[77.709,32.95],[77.613,32.888],[77.555,32.874],[77.48,32.847],[77.436,32.824],[77.352,32.825],[77.219,32.847],[77.079,32.908],[76.978,32.967],[76.934,33.013],[76.789,33.133],[76.761,33.141],[76.708,33.137],[76.633,33.144],[76.565,33.161],[76.505,33.162],[76.446,33.15],[76.329,33.077],[76.174,32.988],[76.048,32.926],[75.974,32.883],[75.907,32.885],[75.842,32.877],[75.836,32.847],[75.924,32.723],[75.902,32.639],[75.834,32.519],[75.705,32.426],[75.545,32.339],[75.512,32.311],[75.403,32.324],[75.309,32.32],[75.303,32.319],[75.234,32.372],[75.104,32.42],[74.987,32.462],[74.789,32.458],[74.686,32.494],[74.658,32.519],[74.643,32.608],[74.663,32.758],[74.632,32.771],[74.588,32.753],[74.483,32.771],[74.355,32.769],[74.306,32.81],[74.33,32.861],[74.323,32.928],[74.304,32.992],[74.284,33.005],[74.222,33.02],[74.126,33.075],[74.049,33.143],[74.004,33.189],[73.99,33.221],[73.994,33.242],[74.05,33.301],[74.118,33.384],[74.143,33.455],[74.15,33.507],[74.131,33.545],[74.07,33.592],[74.004,33.632],[73.978,33.668],[73.976,33.721],[74.001,33.788],[74.078,33.839],[74.216,33.887],[74.251,33.946],[74.247,33.99],[74.209,34.003],[74.113,34.004],[73.95,34.019],[73.922,34.043],[73.904,34.076],[73.904,34.108],[73.938,34.145],[73.979,34.191],[73.972,34.237],[73.925,34.288],[73.81,34.325],[73.794,34.378],[73.812,34.422],[73.85,34.485],[73.883,34.529],[73.961,34.653],[74.056,34.681],[74.172,34.721],[74.3,34.765],[74.498,34.732],[74.594,34.716],[74.789,34.678],[74.952,34.646],[75.118,34.637],[75.188,34.639],[75.264,34.601],[75.452,34.537],[75.606,34.503],[75.709,34.503],[75.862,34.56],[75.938,34.613],[76.041,34.67],[76.172,34.668],[76.457,34.756],[76.51,34.741],[76.594,34.736],[76.696,34.787],[76.749,34.848],[76.758,34.878],[76.783,34.9],[76.892,34.939],[77.001,34.992],[77.031,35.062],[77.049,35.11],[77.168,35.172],[77.293,35.236],[77.423,35.303],[77.572,35.379],[77.697,35.443],[77.792,35.492],[77.8,35.496],[77.803,35.493],[77.811,35.485],[77.852,35.461],[77.895,35.449],[77.946,35.472],[78.009,35.49],[78.043,35.48],[78.047,35.449],[78.009,35.307],[78.012,35.251],[78.076,35.135],[78.158,34.946],[78.236,34.77],[78.282,34.654],[78.327,34.606],[78.516,34.558],[78.671,34.518],[78.763,34.453],[78.865,34.39],[78.936,34.352],[78.97,34.303],[78.977,34.258],[78.971,34.228],[78.932,34.189],[78.753,34.088],[78.732,34.056],[78.727,34.013],[78.762,33.888],[78.784,33.809],[78.79,33.65],[78.802,33.5],[78.865,33.431],[78.912,33.391],[78.917,33.387],[78.948,33.347],[79.013,33.291],[79.067,33.25],[79.113,33.226]]]}},{"type":"Feature","id":"disputed:junagadh-and-manavadar-C01","properties":{"name":"Junagadh and Manavadar","administeredBy":"India","note":"Admin. by India; Claimed by Pakistan"},"geometry":{"type":"Polygon","coordinates":[[[70.88,20.715],[70.827,20.79],[70.853,20.861],[70.809,20.966],[70.689,21.007],[70.589,20.908],[70.543,20.816],[70.485,20.84],[70.127,21.095],[70.034,21.179],[70.008,21.208],[70.008,21.209],[69.935,21.499],[69.842,21.743],[69.874,21.79],[69.94,21.805],[70.049,21.732],[70.291,21.545],[70.35,21.585],[70.41,21.69],[70.503,21.69],[70.636,21.631],[70.687,21.564],[70.76,21.578],[70.765,21.685],[70.708,21.743],[70.737,21.778],[70.784,21.784],[70.834,21.751],[70.876,21.616],[70.836,21.553],[70.746,21.475],[70.595,21.446],[70.537,21.39],[70.589,21.282],[70.627,21.266],[70.664,21.271],[70.672,21.356],[70.741,21.392],[70.825,21.393],[70.834,21.358],[70.797,21.269],[70.821,21.154],[70.952,21.12],[71.19,21.094],[71.372,21.018],[71.405,21.001],[71.48,21.101],[71.614,21.057],[71.677,21.015],[71.571,20.971],[71.516,20.995],[71.3,20.906],[71.323,20.844],[71.025,20.739],[70.88,20.715]],[[70.369,21.352],[70.353,21.323],[70.357,21.3],[70.401,21.235],[70.431,21.209],[70.463,21.2],[70.489,21.211],[70.501,21.247],[70.482,21.3],[70.438,21.352],[70.401,21.36],[70.369,21.352]]]}},{"type":"Feature","id":"disputed:kuril-is-B29","properties":{"name":"Kuril Is.","administeredBy":"Russia","note":"Admin. by Russia; Claimed by Japan"},"geometry":{"type":"MultiPolygon","coordinates":[[[[146.089,43.449],[146.101,43.44],[146.086,43.429],[146.07,43.421],[146.046,43.409],[146.032,43.407],[146.028,43.42],[146.049,43.434],[146.089,43.449]]],[[[145.944,43.426],[145.931,43.426],[145.907,43.422],[145.894,43.42],[145.887,43.433],[145.882,43.444],[145.869,43.45],[145.869,43.458],[145.882,43.46],[145.896,43.455],[145.914,43.455],[145.931,43.457],[145.941,43.445],[145.944,43.426]]],[[[146.333,43.647],[146.35,43.644],[146.359,43.625],[146.332,43.62],[146.288,43.625],[146.274,43.63],[146.284,43.639],[146.31,43.652],[146.333,43.647]]],[[[146.825,43.86],[146.884,43.829],[146.899,43.804],[146.714,43.744],[146.683,43.716],[146.609,43.74],[146.614,43.797],[146.622,43.813],[146.825,43.86]]],[[[146.208,44.498],[146.356,44.425],[146.568,44.44],[146.516,44.375],[146.436,44.376],[146.296,44.281],[146.173,44.269],[146.112,44.246],[145.914,44.104],[145.887,44.048],[145.767,43.941],[145.587,43.845],[145.556,43.665],[145.439,43.737],[145.426,43.81],[145.462,43.871],[145.666,43.999],[145.748,44.072],[145.773,44.129],[145.852,44.193],[145.89,44.249],[145.94,44.273],[146.112,44.5],[146.208,44.498]]],[[[147.658,45.093],[147.769,45.191],[147.886,45.226],[147.873,45.3],[147.924,45.383],[147.965,45.378],[148.056,45.262],[148.13,45.258],[148.324,45.282],[148.612,45.485],[148.707,45.521],[148.773,45.526],[148.812,45.51],[148.826,45.486],[148.825,45.456],[148.803,45.414],[148.837,45.363],[148.791,45.324],[148.6,45.318],[148.415,45.247],[148.262,45.217],[148.005,45.07],[147.914,44.99],[147.784,44.959],[147.658,44.977],[147.622,44.945],[147.61,44.887],[147.563,44.836],[147.31,44.678],[147.207,44.554],[147.098,44.531],[146.897,44.404],[146.933,44.513],[146.974,44.566],[147.141,44.663],[147.155,44.766],[147.247,44.856],[147.43,44.945],[147.558,45.062],[147.658,45.093]]]]}},{"type":"Feature","id":"disputed:lawa-headwaters-B14","properties":{"name":"Lawa Headwaters","administeredBy":"France","note":"Admin. by France; Claimed by Suriname"},"geometry":{"type":"Polygon","coordinates":[[[-54.082,3.307],[-54.085,3.194],[-54.069,3.144],[-54.012,3.116],[-54.001,3.067],[-54.028,3.029],[-54.002,2.99],[-53.989,2.865],[-54.013,2.679],[-54.006,2.575],[-54.167,2.264],[-54.098,2.198],[-54.141,2.167],[-54.12,2.128],[-54.13,2.121],[-54.167,2.137],[-54.228,2.153],[-54.293,2.154],[-54.433,2.208],[-54.515,2.245],[-54.551,2.293],[-54.592,2.314],[-54.616,2.327],[-54.605,2.336],[-54.568,2.343],[-54.536,2.343],[-54.486,2.416],[-54.402,2.462],[-54.257,2.714],[-54.196,2.818],[-54.188,2.875],[-54.171,2.994],[-54.203,3.138],[-54.188,3.179],[-54.083,3.325],[-54.082,3.307]]]}},{"type":"Feature","id":"disputed:luhansk-people-s-republic-C03","properties":{"name":"Luhansk People's Republic","administeredBy":"Ukraine","note":"Self admin.; Claimed by Ukraine"},"geometry":{"type":"Polygon","coordinates":[[[39.034,47.849],[39.036,47.857],[39.048,47.884],[39.031,47.995],[38.988,48.012],[38.829,48.026],[38.803,48.055],[38.822,48.092],[38.805,48.116],[38.614,48.173],[38.565,48.272],[38.42,48.28],[38.42,48.311],[38.483,48.351],[38.408,48.429],[38.305,48.455],[38.303,48.482],[38.31,48.523],[38.264,48.539],[38.27,48.565],[38.256,48.601],[38.327,48.673],[38.417,48.693],[38.581,48.673],[38.774,48.706],[38.951,48.632],[39.093,48.642],[39.149,48.682],[39.26,48.685],[39.358,48.632],[39.457,48.582],[39.645,48.591],[39.765,48.572],[39.836,48.543],[39.858,48.484],[39.883,48.419],[39.89,48.36],[39.85,48.332],[39.847,48.303],[39.866,48.288],[39.918,48.282],[39.958,48.269],[39.961,48.238],[39.885,48.168],[39.814,48.035],[39.776,47.964],[39.779,47.888],[39.736,47.845],[39.658,47.841],[39.391,47.834],[39.158,47.837],[39.058,47.848],[39.034,47.849]]]}},{"type":"Feature","id":"disputed:n-cyprus-B20","properties":{"name":"N. Cyprus","administeredBy":"Northern Cyprus","note":"Self admin.; Claimed by Cyprus"},"geometry":{"type":"Polygon","coordinates":[[[34.463,35.594],[33.942,35.292],[33.908,35.202],[33.931,35.14],[34.004,35.065],[33.966,35.057],[33.903,35.085],[33.866,35.094],[33.832,35.067],[33.792,35.048],[33.757,35.04],[33.726,35.037],[33.675,35.018],[33.614,35.023],[33.526,35.039],[33.476,35],[33.464,35.005],[33.456,35.101],[33.424,35.141],[33.384,35.163],[33.326,35.154],[33.248,35.157],[33.191,35.173],[33.077,35.146],[32.986,35.116],[32.92,35.088],[32.869,35.089],[32.784,35.116],[32.72,35.145],[32.713,35.171],[32.772,35.16],[32.88,35.181],[32.926,35.278],[32.942,35.39],[33.123,35.358],[33.308,35.341],[33.459,35.336],[33.608,35.354],[34.063,35.474],[34.192,35.546],[34.272,35.57],[34.411,35.629],[34.556,35.662],[34.463,35.594]]]}},{"type":"Feature","id":"disputed:north-borneo-C04","properties":{"name":"North Borneo","administeredBy":"Malaysia","note":null},"geometry":{"type":"Polygon","coordinates":[[[117.696,4.343],[116.51,6.535],[116.505,6.537],[116.538,6.583],[116.75,6.977],[116.776,6.99],[116.833,6.952],[116.85,6.827],[116.842,6.772],[116.808,6.691],[116.788,6.606],[116.812,6.608],[116.913,6.66],[117.019,6.797],[117.078,6.917],[117.129,6.969],[117.23,6.94],[117.252,6.919],[117.245,6.833],[117.255,6.783],[117.294,6.677],[117.38,6.612],[117.499,6.571],[117.61,6.513],[117.646,6.474],[117.67,6.427],[117.694,6.35],[117.696,6.272],[117.616,6.197],[117.65,6.074],[117.645,6.002],[117.617,5.941],[117.501,5.885],[117.818,5.94],[117.896,5.972],[118.004,6.053],[118.062,5.983],[118.116,5.863],[118.072,5.832],[117.935,5.788],[117.928,5.769],[117.974,5.706],[118.031,5.712],[118.145,5.754],[118.249,5.821],[118.3,5.82],[118.353,5.806],[118.456,5.763],[118.514,5.729],[118.563,5.685],[118.595,5.592],[118.714,5.559],[118.957,5.429],[119.003,5.418],[119.05,5.415],[119.178,5.431],[119.223,5.413],[119.256,5.366],[119.266,5.308],[119.263,5.246],[119.25,5.199],[119.22,5.16],[119.132,5.1],[118.913,5.023],[118.672,4.964],[118.551,4.968],[118.382,5.019],[118.32,5.012],[118.261,4.989],[118.185,4.829],[118.324,4.669],[118.563,4.502],[118.595,4.461],[118.586,4.41],[118.548,4.379],[118.498,4.362],[118.364,4.336],[118.229,4.316],[118.117,4.288],[118.008,4.25],[117.896,4.263],[117.741,4.338],[117.696,4.343]]]}},{"type":"Feature","id":"disputed:samdu-valleys-B04","properties":{"name":"Samdu Valleys","administeredBy":"India","note":"Admin. by India; Claimed by China"},"geometry":{"type":"Polygon","coordinates":[[[78.486,32.236],[78.496,32.216],[78.678,32.023],[78.726,31.984],[78.735,31.958],[78.72,31.888],[78.717,31.891],[78.658,31.965],[78.504,32.096],[78.456,32.131],[78.424,32.144],[78.407,32.167],[78.413,32.193],[78.482,32.234],[78.486,32.236]]]}},{"type":"Feature","id":"disputed:shaksam-valley-B06","properties":{"name":"Shaksam Valley","administeredBy":"China","note":"Admin. by China; Ceded to China by Pakistan; Claimed by India"},"geometry":{"type":"Polygon","coordinates":[[[77.52,35.473],[77.447,35.476],[77.295,35.508],[77.09,35.552],[76.879,35.613],[76.767,35.662],[76.728,35.679],[76.632,35.729],[76.563,35.773],[76.551,35.887],[76.502,35.878],[76.386,35.837],[76.252,35.811],[76.178,35.811],[76.148,35.829],[76.103,35.949],[76.071,35.983],[76.01,35.996],[75.945,36.018],[75.912,36.049],[75.905,36.088],[75.934,36.134],[75.969,36.169],[75.974,36.382],[75.952,36.458],[76.115,36.422],[76.257,36.331],[76.368,36.312],[76.416,36.267],[76.483,36.218],[76.605,36.191],[76.715,36.156],[76.753,36.105],[76.773,36.01],[76.782,35.929],[76.797,35.899],[76.826,35.875],[77.022,35.809],[77.073,35.768],[77.16,35.725],[77.34,35.714],[77.385,35.681],[77.477,35.628],[77.496,35.597],[77.52,35.473]]]}},{"type":"Feature","id":"disputed:siachen-glacier-B45","properties":{"name":"Siachen Glacier","administeredBy":"Kashmir","note":"Claimed by Pakistan and India"},"geometry":{"type":"Polygon","coordinates":[[[77.799,35.496],[77.792,35.492],[77.697,35.443],[77.572,35.379],[77.423,35.303],[77.293,35.236],[77.168,35.172],[77.049,35.11],[77.004,35.196],[76.979,35.246],[76.928,35.347],[76.882,35.436],[76.813,35.572],[76.767,35.662],[76.879,35.613],[77.09,35.552],[77.295,35.508],[77.447,35.476],[77.52,35.473],[77.573,35.472],[77.724,35.481],[77.799,35.496]]]}},{"type":"Feature","id":"disputed:somaliland-B30","properties":{"name":"Somaliland","administeredBy":"Somaliland","note":"Self admin.; Claimed by Somalia"},"geometry":{"type":"Polygon","coordinates":[[[43.049,11.194],[43.159,11.366],[43.246,11.5],[43.441,11.346],[43.631,11.035],[43.853,10.784],[44.158,10.551],[44.279,10.472],[44.386,10.43],[44.943,10.437],[45.338,10.65],[45.696,10.804],[45.817,10.836],[46.025,10.794],[46.254,10.781],[46.46,10.734],[46.565,10.746],[46.973,10.925],[47.23,11.1],[47.405,11.174],[47.474,11.175],[47.712,11.112],[48.019,11.139],[48.439,11.29],[48.573,11.32],[48.674,11.323],[48.903,11.255],[48.939,11.258],[48.938,10.982],[48.938,10.714],[48.938,10.433],[48.938,9.974],[48.938,9.808],[48.938,9.564],[48.938,9.452],[48.794,9.233],[48.617,8.965],[48.429,8.68],[48.273,8.443],[48.127,8.222],[47.978,7.997],[47.638,7.997],[47.306,7.997],[46.978,7.997],[46.92,8.026],[46.645,8.118],[46.296,8.235],[45.863,8.38],[45.555,8.483],[45.227,8.591],[44.894,8.7],[44.632,8.786],[44.306,8.893],[44.023,8.986],[43.984,9.009],[43.827,9.151],[43.621,9.337],[43.581,9.341],[43.483,9.379],[43.394,9.48],[43.303,9.609],[43.218,9.77],[43.182,9.88],[43.069,9.926],[43.015,10.013],[42.912,10.141],[42.842,10.203],[42.816,10.257],[42.784,10.37],[42.725,10.492],[42.669,10.568],[42.656,10.6],[42.66,10.621],[42.763,10.787],[42.81,10.846],[42.863,10.903],[42.906,10.96],[42.923,10.999],[43.049,11.194]]]}},{"type":"Feature","id":"disputed:south-ossetia-B37","properties":{"name":"South Ossetia","administeredBy":"Georgia","note":"Self admin.; Claimed by Georgia"},"geometry":{"type":"Polygon","coordinates":[[[43.697,42.672],[43.742,42.708],[43.783,42.747],[43.799,42.728],[43.795,42.703],[43.75,42.658],[43.738,42.617],[43.76,42.594],[43.826,42.572],[43.957,42.567],[44.005,42.596],[44.103,42.616],[44.2,42.654],[44.354,42.513],[44.395,42.461],[44.555,42.363],[44.6,42.338],[44.617,42.304],[44.64,42.178],[44.624,42.136],[44.539,42.028],[44.488,41.998],[44.338,41.999],[44.305,42.01],[44.249,42.075],[44.216,42.091],[44.177,42.09],[44.126,42.122],[44.082,42.172],[44.012,42.166],[43.941,42.149],[43.907,42.13],[43.832,42.062],[43.807,42.062],[43.784,42.087],[43.745,42.109],[43.704,42.099],[43.655,42.108],[43.612,42.155],[43.601,42.204],[43.62,42.251],[43.64,42.282],[43.608,42.305],[43.584,42.338],[43.579,42.369],[43.567,42.392],[43.572,42.541],[43.601,42.611],[43.697,42.672]]]}},{"type":"Feature","id":"disputed:tirpani-valleys-B01","properties":{"name":"Tirpani Valleys","administeredBy":"India","note":"Admin. by India; Claimed by China"},"geometry":{"type":"Polygon","coordinates":[[[79.37,31.08],[79.176,31.092],[78.976,31.105],[78.951,31.12],[78.885,31.246],[78.849,31.296],[78.845,31.302],[78.9,31.331],[78.946,31.337],[78.974,31.329],[79.011,31.414],[79.044,31.426],[79.107,31.403],[79.233,31.242],[79.339,31.106],[79.361,31.087],[79.37,31.08]]]}},{"type":"Feature","id":"disputed:transnistria-B36","properties":{"name":"Transnistria","administeredBy":"Moldova","note":"Self admin.; Claimed by Moldova"},"geometry":{"type":"Polygon","coordinates":[[[28.539,48.104],[28.496,48.096],[28.463,48.091],[28.53,48.15],[28.602,48.144],[28.774,48.12],[28.866,47.996],[28.923,47.951],[28.973,47.933],[29.037,47.952],[29.093,47.975],[29.125,47.965],[29.195,47.882],[29.211,47.775],[29.211,47.732],[29.186,47.659],[29.151,47.581],[29.123,47.53],[29.135,47.49],[29.16,47.456],[29.201,47.444],[29.334,47.376],[29.383,47.328],[29.456,47.293],[29.511,47.291],[29.539,47.271],[29.549,47.247],[29.542,47.186],[29.511,47.128],[29.515,47.091],[29.563,47.048],[29.569,46.997],[29.572,46.964],[29.598,46.939],[29.72,46.883],[29.878,46.829],[29.918,46.782],[29.942,46.724],[29.935,46.625],[29.924,46.539],[29.898,46.553],[29.805,46.581],[29.77,46.601],[29.763,46.62],[29.748,46.641],[29.693,46.665],[29.674,46.689],[29.69,46.715],[29.677,46.756],[29.635,46.813],[29.589,46.827],[29.537,46.801],[29.499,46.829],[29.472,46.912],[29.424,46.955],[29.311,46.967],[29.3,46.984],[29.317,47.005],[29.36,47.029],[29.359,47.066],[29.314,47.116],[29.265,47.146],[29.215,47.143],[29.172,47.136],[29.137,47.136],[29.132,47.153],[29.145,47.181],[29.154,47.235],[29.104,47.31],[29.116,47.341],[29.12,47.369],[29.103,47.392],[29.089,47.421],[29.103,47.45],[29.079,47.504],[29.017,47.583],[28.994,47.68],[29.01,47.796],[28.934,47.898],[28.766,47.987],[28.653,48.017],[28.604,48.009],[28.572,48.028],[28.574,48.069],[28.539,48.104]]]}},{"type":"Feature","id":"disputed:w-sahara-B19","properties":{"name":"W. Sahara","administeredBy":"Morocco","note":"Admin. by Morocco; Claimed by Western Sahara"},"geometry":{"type":"Polygon","coordinates":[[[-17.042,21.008],[-17.064,20.899],[-17.048,20.806],[-17.099,20.857],[-17.01,21.377],[-16.931,21.9],[-16.793,22.16],[-16.684,22.274],[-16.514,22.334],[-16.359,22.595],[-16.304,22.835],[-16.202,22.945],[-16.17,23.032],[-16.21,23.098],[-16.114,23.228],[-15.997,23.425],[-15.943,23.553],[-15.806,23.75],[-15.789,23.793],[-15.802,23.842],[-15.855,23.8],[-15.913,23.728],[-15.981,23.67],[-15.953,23.741],[-15.899,23.844],[-15.778,23.953],[-15.586,24.073],[-15.189,24.479],[-15.039,24.549],[-14.904,24.72],[-14.856,24.872],[-14.843,25.22],[-14.795,25.404],[-14.707,25.548],[-14.602,25.809],[-14.523,25.925],[-14.471,26.163],[-14.414,26.254],[-14.312,26.297],[-14.168,26.415],[-13.952,26.489],[-13.696,26.643],[-13.576,26.735],[-13.496,26.873],[-13.41,27.147],[-13.256,27.435],[-13.176,27.656],[-12.895,27.656],[-12.614,27.656],[-12.334,27.656],[-12.053,27.656],[-11.772,27.656],[-11.491,27.656],[-11.21,27.656],[-10.93,27.656],[-10.649,27.656],[-10.368,27.656],[-10.087,27.656],[-9.807,27.656],[-9.526,27.656],[-9.245,27.656],[-8.964,27.656],[-8.683,27.656],[-8.683,27.49],[-8.683,27.286],[-8.683,27.119],[-8.683,26.921],[-8.683,26.723],[-8.682,26.498],[-8.682,26.273],[-8.682,26.109],[-8.682,25.996],[-8.886,25.996],[-9.072,25.996],[-9.258,25.996],[-9.445,25.996],[-9.631,25.995],[-9.817,25.995],[-10.003,25.995],[-10.19,25.995],[-10.376,25.995],[-10.562,25.995],[-10.749,25.995],[-10.935,25.995],[-11.121,25.995],[-11.308,25.995],[-11.494,25.995],[-11.68,25.995],[-11.867,25.995],[-12.016,25.995],[-12.016,25.876],[-12.016,25.74],[-12.016,25.604],[-12.016,25.468],[-12.016,25.332],[-12.016,25.196],[-12.016,25.059],[-12.016,24.923],[-12.016,24.787],[-12.016,24.651],[-12.016,24.515],[-12.016,24.379],[-12.016,24.243],[-12.016,24.106],[-12.016,23.97],[-12.016,23.834],[-12.016,23.698],[-12.016,23.576],[-12.023,23.468],[-12.083,23.435],[-12.226,23.377],[-12.373,23.318],[-12.559,23.291],[-12.62,23.271],[-12.74,23.193],[-12.896,23.09],[-13.031,23],[-13.121,22.884],[-13.153,22.821],[-13.166,22.753],[-13.156,22.689],[-13.107,22.561],[-13.094,22.496],[-13.087,22.383],[-13.078,22.26],[-13.07,22.128],[-13.061,21.996],[-13.051,21.855],[-13.042,21.714],[-13.032,21.572],[-13.025,21.467],[-13.016,21.334],[-13.167,21.334],[-13.397,21.334],[-13.626,21.333],[-13.855,21.333],[-14.085,21.333],[-14.314,21.332],[-14.543,21.332],[-14.773,21.332],[-15.002,21.332],[-15.231,21.331],[-15.461,21.331],[-15.69,21.331],[-15.919,21.33],[-16.148,21.33],[-16.378,21.33],[-16.607,21.33],[-16.836,21.329],[-16.965,21.329],[-17.006,21.142],[-17.042,21.008]]]}}]}
